start=new Date('2023-05-30T00:00:00.000Z').valueOf();
sats=[{"TLE_LINE1":"1 53836U 22114U   23149.79215011  .00000464  00000-0  47250-4 0  9996","COUNTRY_CODE":"US","MEAN_ANOMALY":"276.6016","PERIAPSIS":"538.973","ELEMENT_SET_NO":"999","NORAD_CAT_ID":"53836","CENTER_NAME":"EARTH","CLASSIFICATION_TYPE":"U","RA_OF_ASC_NODE":"170.3746","OBJECT_ID":"2022-114U","DECAY_DATE":null,"RCS_SIZE":"LARGE","SITE":"AFETR","TIME_SYSTEM":"UTC","MEAN_ELEMENT_THEORY":"SGP4","REF_FRAME":"TEME","PERIOD":"95.437","OBJECT_NAME":"STARLINK-4778","MEAN_MOTION_DOT":"0.00000464","TLE_LINE2":"2 53836  53.2152 170.3746 0001108  83.5102 276.6016 15.08841880 39757","REV_AT_EPOCH":"3975","APOAPSIS":"540.506","MEAN_MOTION_DDOT":"0.0000000000000","LAUNCH_DATE":"2022-09-19","EPHEMERIS_TYPE":"0","FILE":"3920354","INCLINATION":"53.2152","OBJECT_TYPE":"PAYLOAD","ECCENTRICITY":"0.00011080","BSTAR":"0.00004725000000","SEMIMAJOR_AXIS":"6917.875","ARG_OF_PERICENTER":"83.5102","EPOCH":"2023-05-29T19:00:41.769504","GP_ID":"232781846","MEAN_MOTION":"15.08841880"},{"EPOCH":"2023-05-29T19:31:04.825056","ARG_OF_PERICENTER":"87.4191","SEMIMAJOR_AXIS":"6917.874","GP_ID":"232780106","MEAN_MOTION":"15.08841974","ECCENTRICITY":"0.00010770","BSTAR":"0.00004271700000","FILE":"3920354","LAUNCH_DATE":"2022-09-19","EPHEMERIS_TYPE":"0","INCLINATION":"53.2152","OBJECT_TYPE":"PAYLOAD","OBJECT_NAME":"STARLINK-4776","APOAPSIS":"540.484","REV_AT_EPOCH":"3962","MEAN_MOTION_DDOT":"0.0000000000000","MEAN_MOTION_DOT":"0.00000392","TLE_LINE2":"2 53837  53.2152 179.7859 0001077  87.4191 272.6924 15.08841974 39626","RCS_SIZE":"LARGE","REF_FRAME":"TEME","PERIOD":"95.437","SITE":"AFETR","TIME_SYSTEM":"UTC","MEAN_ELEMENT_THEORY":"SGP4","RA_OF_ASC_NODE":"179.7859","CLASSIFICATION_TYPE":"U","CENTER_NAME":"EARTH","OBJECT_ID":"2022-114V","DECAY_DATE":null,"PERIAPSIS":"538.994","MEAN_ANOMALY":"272.6924","NORAD_CAT_ID":"53837","ELEMENT_SET_NO":"999","COUNTRY_CODE":"US","TLE_LINE1":"1 53837U 22114V   23149.81325029  .00000392  00000-0  42717-4 0  9994"},{"PERIAPSIS":"539.345","MEAN_ANOMALY":"278.7850","NORAD_CAT_ID":"53838","ELEMENT_SET_NO":"999","TLE_LINE1":"1 53838U 22114W   23149.78848472 -.00001362  00000-0 -67532-4 0  9995","COUNTRY_CODE":"US","RCS_SIZE":"LARGE","PERIOD":"95.438","REF_FRAME":"TEME","TIME_SYSTEM":"UTC","MEAN_ELEMENT_THEORY":"SGP4","SITE":"AFETR","RA_OF_ASC_NODE":"170.3569","CLASSIFICATION_TYPE":"U","CENTER_NAME":"EARTH","DECAY_DATE":null,"OBJECT_ID":"2022-114W","FILE":"3920354","EPHEMERIS_TYPE":"0","LAUNCH_DATE":"2022-09-19","INCLINATION":"53.2156","OBJECT_TYPE":"PAYLOAD","OBJECT_NAME":"STARLINK-4773","APOAPSIS":"540.233","REV_AT_EPOCH":"3975","MEAN_MOTION_DDOT":"0.0000000000000","TLE_LINE2":"2 53838  53.2156 170.3569 0000642  81.3215 278.7850 15.08825667 39753","MEAN_MOTION_DOT":"-0.00001362","EPOCH":"2023-05-29T18:55:25.079808","SEMIMAJOR_AXIS":"6917.924","ARG_OF_PERICENTER":"81.3215","MEAN_MOTION":"15.08825667","GP_ID":"232780856","BSTAR":"-0.00006753200000","ECCENTRICITY":"0.00006420"},{"EPOCH":"2023-05-29T22:16:46.561152","SEMIMAJOR_AXIS":"6917.891","ARG_OF_PERICENTER":"81.9830","GP_ID":"232781108","MEAN_MOTION":"15.08836386","BSTAR":"-0.00002915500000","ECCENTRICITY":"0.00010910","FILE":"3920354","LAUNCH_DATE":"2022-09-19","EPHEMERIS_TYPE":"0","OBJECT_TYPE":"PAYLOAD","INCLINATION":"53.2153","OBJECT_NAME":"STARLINK-4784","APOAPSIS":"540.511","REV_AT_EPOCH":"3977","MEAN_MOTION_DDOT":"0.0000000000000","MEAN_MOTION_DOT":"-0.00000752","TLE_LINE2":"2 53839  53.2153 169.8079 0001091  81.9830 278.1285 15.08836386 39776","RCS_SIZE":"LARGE","REF_FRAME":"TEME","PERIOD":"95.438","SITE":"AFETR","TIME_SYSTEM":"UTC","MEAN_ELEMENT_THEORY":"SGP4","RA_OF_ASC_NODE":"169.8079","CENTER_NAME":"EARTH","CLASSIFICATION_TYPE":"U","OBJECT_ID":"2022-114X","DECAY_DATE":null,"PERIAPSIS":"539.002","MEAN_ANOMALY":"278.1285","NORAD_CAT_ID":"53839","ELEMENT_SET_NO":"999","COUNTRY_CODE":"US","TLE_LINE1":"1 53839U 22114X   23149.92831668 -.00000752  00000-0 -29155-4 0  9992"},{"OBJECT_NAME":"STARLINK-4766","TLE_LINE2":"2 53840  53.2152 170.2928 0001039  79.1998 280.9112 15.08838715 39758","MEAN_MOTION_DOT":"0.00000719","APOAPSIS":"540.468","REV_AT_EPOCH":"3975","MEAN_MOTION_DDOT":"0.0000000000000","EPHEMERIS_TYPE":"0","LAUNCH_DATE":"2022-09-19","FILE":"3920354","INCLINATION":"53.2152","OBJECT_TYPE":"PAYLOAD","BSTAR":"0.00006327300000","ECCENTRICITY":"0.00010390","SEMIMAJOR_AXIS":"6917.884","ARG_OF_PERICENTER":"79.1998","EPOCH":"2023-05-29T18:40:51.460896","MEAN_MOTION":"15.08838715","GP_ID":"232781347","TLE_LINE1":"1 53840U 22114Y   23149.77837339  .00000719  00000-0  63273-4 0  9998","COUNTRY_CODE":"US","MEAN_ANOMALY":"280.9112","PERIAPSIS":"539.031","ELEMENT_SET_NO":"999","NORAD_CAT_ID":"53840","CLASSIFICATION_TYPE":"U","CENTER_NAME":"EARTH","RA_OF_ASC_NODE":"170.2928","DECAY_DATE":null,"OBJECT_ID":"2022-114Y","RCS_SIZE":"LARGE","TIME_SYSTEM":"UTC","MEAN_ELEMENT_THEORY":"SGP4","SITE":"AFETR","PERIOD":"95.438","REF_FRAME":"TEME"},{"ECCENTRICITY":"0.00009840","BSTAR":"0.00005325800000","MEAN_MOTION":"15.08841890","GP_ID":"232780606","EPOCH":"2023-05-29T18:50:05.080992","ARG_OF_PERICENTER":"80.0974","SEMIMAJOR_AXIS":"6917.875","REV_AT_EPOCH":"3975","APOAPSIS":"540.420","MEAN_MOTION_DDOT":"0.0000000000000","TLE_LINE2":"2 53841  53.2158 170.3342 0000984  80.0974 280.0129 15.08841890 39756","MEAN_MOTION_DOT":"0.00000560","OBJECT_NAME":"STARLINK-4750","INCLINATION":"53.2158","OBJECT_TYPE":"PAYLOAD","FILE":"3920354","EPHEMERIS_TYPE":"0","LAUNCH_DATE":"2022-09-19","DECAY_DATE":null,"OBJECT_ID":"2022-114Z","RA_OF_ASC_NODE":"170.3342","CLASSIFICATION_TYPE":"U","CENTER_NAME":"EARTH","PERIOD":"95.437","REF_FRAME":"TEME","TIME_SYSTEM":"UTC","MEAN_ELEMENT_THEORY":"SGP4","SITE":"AFETR","RCS_SIZE":"LARGE","TLE_LINE1":"1 53841U 22114Z   23149.78478103  .00000560  00000-0  53258-4 0  9996","COUNTRY_CODE":"US","NORAD_CAT_ID":"53841","ELEMENT_SET_NO":"999","PERIAPSIS":"539.059","MEAN_ANOMALY":"280.0129"},{"ECCENTRICITY":"0.00010910","BSTAR":"0.00006038000000","EPOCH":"2023-05-29T10:31:55.935840","ARG_OF_PERICENTER":"89.0227","SEMIMAJOR_AXIS":"6917.876","MEAN_MOTION":"15.08841338","GP_ID":"232747979","OBJECT_NAME":"STARLINK-4754","APOAPSIS":"540.496","MEAN_MOTION_DDOT":"0.0000000000000","REV_AT_EPOCH":"3970","TLE_LINE2":"2 53842  53.2153 171.7300 0001091  89.0227 271.0891 15.08841338 39709","MEAN_MOTION_DOT":"0.00000673","FILE":"3920065","EPHEMERIS_TYPE":"0","LAUNCH_DATE":"2022-09-19","INCLINATION":"53.2153","OBJECT_TYPE":"PAYLOAD","RA_OF_ASC_NODE":"171.7300","CENTER_NAME":"EARTH","CLASSIFICATION_TYPE":"U","DECAY_DATE":null,"OBJECT_ID":"2022-114AA","RCS_SIZE":"LARGE","PERIOD":"95.437","REF_FRAME":"TEME","MEAN_ELEMENT_THEORY":"SGP4","TIME_SYSTEM":"UTC","SITE":"AFETR","COUNTRY_CODE":"US","TLE_LINE1":"1 53842U 22114AA  23149.43884185  .00000673  00000-0  60380-4 0  9999","PERIAPSIS":"538.987","MEAN_ANOMALY":"271.0891","NORAD_CAT_ID":"53842","ELEMENT_SET_NO":"999"},{"ELEMENT_SET_NO":"999","NORAD_CAT_ID":"53843","MEAN_ANOMALY":"281.8809","PERIAPSIS":"539.063","TLE_LINE1":"1 53843U 22114AB  23149.78109797  .00000322  00000-0  38296-4 0  9999","COUNTRY_CODE":"US","SITE":"AFETR","MEAN_ELEMENT_THEORY":"SGP4","TIME_SYSTEM":"UTC","REF_FRAME":"TEME","PERIOD":"95.438","RCS_SIZE":"LARGE","OBJECT_ID":"2022-114AB","DECAY_DATE":null,"CLASSIFICATION_TYPE":"U","CENTER_NAME":"EARTH","RA_OF_ASC_NODE":"170.3111","OBJECT_TYPE":"PAYLOAD","INCLINATION":"53.2155","LAUNCH_DATE":"2022-09-19","EPHEMERIS_TYPE":"0","FILE":"3920354","MEAN_MOTION_DOT":"0.00000322","TLE_LINE2":"2 53843  53.2155 170.3111 0000987  78.2294 281.8809 15.08839816 39755","APOAPSIS":"540.429","REV_AT_EPOCH":"3975","MEAN_MOTION_DDOT":"0.0000000000000","OBJECT_NAME":"STARLINK-4769","GP_ID":"232781608","MEAN_MOTION":"15.08839816","ARG_OF_PERICENTER":"78.2294","SEMIMAJOR_AXIS":"6917.881","EPOCH":"2023-05-29T18:44:46.864608","ECCENTRICITY":"0.00009870","BSTAR":"0.00003829600000"},{"DECAY_DATE":null,"OBJECT_ID":"2022-114AC","RA_OF_ASC_NODE":"170.1988","CLASSIFICATION_TYPE":"U","CENTER_NAME":"EARTH","PERIOD":"95.438","REF_FRAME":"TEME","TIME_SYSTEM":"UTC","MEAN_ELEMENT_THEORY":"SGP4","SITE":"AFETR","RCS_SIZE":"LARGE","COUNTRY_CODE":"US","TLE_LINE1":"1 53844U 22114AC  23149.76267667 -.00000262  00000-0  16146-5 0  9994","NORAD_CAT_ID":"53844","ELEMENT_SET_NO":"999","PERIAPSIS":"539.059","MEAN_ANOMALY":"278.5588","ECCENTRICITY":"0.00010170","BSTAR":"0.00000161460000","MEAN_MOTION":"15.08834333","GP_ID":"232781847","EPOCH":"2023-05-29T18:18:15.264288","ARG_OF_PERICENTER":"81.5519","SEMIMAJOR_AXIS":"6917.898","APOAPSIS":"540.466","MEAN_MOTION_DDOT":"0.0000000000000","REV_AT_EPOCH":"3975","TLE_LINE2":"2 53844  53.2153 170.1988 0001017  81.5519 278.5588 15.08834333 39752","MEAN_MOTION_DOT":"-0.00000262","OBJECT_NAME":"STARLINK-4745","OBJECT_TYPE":"PAYLOAD","INCLINATION":"53.2153","FILE":"3920354","EPHEMERIS_TYPE":"0","LAUNCH_DATE":"2022-09-19"},{"ELEMENT_SET_NO":"999","NORAD_CAT_ID":"53845","MEAN_ANOMALY":"273.3942","PERIAPSIS":"539.069","TLE_LINE1":"1 53845U 22114AD  23149.77373196  .00000454  00000-0  46621-4 0  9993","COUNTRY_CODE":"US","MEAN_ELEMENT_THEORY":"SGP4","TIME_SYSTEM":"UTC","SITE":"AFETR","PERIOD":"95.438","REF_FRAME":"TEME","RCS_SIZE":"LARGE","DECAY_DATE":null,"OBJECT_ID":"2022-114AD","CENTER_NAME":"EARTH","CLASSIFICATION_TYPE":"U","RA_OF_ASC_NODE":"170.2854","INCLINATION":"53.2153","OBJECT_TYPE":"PAYLOAD","EPHEMERIS_TYPE":"0","LAUNCH_DATE":"2022-09-19","FILE":"3920354","TLE_LINE2":"2 53845  53.2153 170.2854 0000989  86.7163 273.3942 15.08837507 39758","MEAN_MOTION_DOT":"0.00000454","REV_AT_EPOCH":"3975","APOAPSIS":"540.437","MEAN_MOTION_DDOT":"0.0000000000000","OBJECT_NAME":"STARLINK-4753","MEAN_MOTION":"15.08837507","GP_ID":"232780107","SEMIMAJOR_AXIS":"6917.888","ARG_OF_PERICENTER":"86.7163","EPOCH":"2023-05-29T18:34:10.441344","ECCENTRICITY":"0.00009890","BSTAR":"0.00004662100000"}];
